STARLINK-36731          
1 68964U 26099P   26132.83335648 -.00005814  00000+0 -25930-4 0  9995
2 68964  53.1592 331.6368 0000908  73.6125 308.7032 15.80880232  3037
