{
  "norad_id": 68964,
  "name": "STARLINK-36731",
  "history": [
    {
      "epoch": "2026-05-12T20:00:01.999008Z",
      "apogee_km": 328.5590986471443,
      "perigee_km": 327.34127321417964,
      "latitude_deg": 17.714559438583205,
      "longitude_deg": 174.79262912808662,
      "height_km": 327.89182739839765,
      "semi_major_axis_km": 6706.087185930662,
      "eccentricity": 9.08e-05,
      "inclination_deg": 53.1592,
      "raan_deg": 331.6368,
      "arg_perigee_deg": 73.6125,
      "mean_anomaly_deg": 308.7032,
      "mean_motion_rev_day": 15.80880232
    }
  ]
}